#dP2024  2 18  0  0  0.00000000      96 __u+U IGS20 FIT  IAC
## 2302      0.00000000   900.00000000 60358 0.0000000000000
+  119   C06C07C08C09C10C11C12C13C14C16C19C20C21C22C23C24C25
+        C26C27C28C29C30C32C33C34C35C36C37C38C39C40C41C42C43
+        C44C45C46E02E03E04E05E07E08E09E10E11E12E13E14E15E18
+        E19E21E24E25E26E27E30E31E33E34E36G01G02G03G04G05G06
+        G07G08G09G10G11G12G13G14G15G16G17G18G19G20G21G22G23
+        G24G25G26G27G28G29G30G31G32J02J03J04R01R02R03R04R05
+        R07R08R09R11R12R13R14R15R16R17R18R19R20R21R22R24R26
++         9  9  7  9  8  9  8  8  8  9  6  6  7  6  6  8  6
++         7  7  6  6  7  6  8  7  6  7  7  8  9  9  6  7  8
++         6  7  6  6  7  6  6  6  7  6  6  5  6  6  6  6  5
++         7  6  5  5  7  6  6  5  7  6  6  6  6  6  5  5  6
++         5  7  5  6  6  4  6  5  5  5  6  7  6  5  6  6  6
++         5  6  6  6  6  5  6  6  7  7  0  5  6  5  6  6  6
++         6  6  6  7  6  7  6  6  6  7  5  7  6  7  8  6  7
%c M  cc GPS ccc cccc cccc cccc cccc ccccc ccccc ccccc ccccc
%c cc cc ccc ccc cccc cccc cccc cccc ccccc ccccc ccccc ccccc
%f  0.0000000  0.000000000  0.00000000000  0.000000000000000
%f  0.0000000  0.000000000  0.00000000000  0.000000000000000
%i    0    0    0    0      0      0      0      0         0
%i    0    0    0    0      0      0      0      0         0
/* INFORMATION & ANALYSIS CENTER (IAC)      ULTRA-RAPID DATA
/* S/V CLOCKS ARE ALIGNED TO GNSS TIME                      
/* G:C1WC2W R:C1PC2P E:C1XC5X C:C2IC6I J:C1CC2S             
/* PCV:IGS20_2290 OL/AL:FES2004  NONE     YN ORB:CoN CLK:CoN
*  2024 02 18 12 30  0.00000000
PC06  -8634.092463  23112.262054 -34160.712614    118.151817
PC07 -16201.477672  37274.296730  10882.903408   -821.336770
PC08   -873.865596  36598.055565  21100.615370     28.763477
PC09    809.022850  25139.981222 -33303.761624   -506.845213
PC10  -9374.523860  37271.316004  17028.995681     80.006045
PC11 -21655.787082  -9148.515143 -14963.274404    416.978917
PC12  -2292.926622 -15331.982644 -23163.753422    767.009179
PC13   4826.620019  39761.235877  13768.127589    418.397684
PC14 -11364.320658 -11794.147244  22619.247795    217.845521
PC16 -11342.907962  21568.379475 -34156.444913   -346.983453
PC19  16222.163354   1566.563067 -22627.488278   -925.727917
PC20   5885.146169  18638.009733 -19891.389466   -174.792090
PC21   9050.147466 -25979.887591   4780.588836   -961.944298
PC22  17886.313257 -17398.160794 -12521.250382   -105.251737
PC23 -15590.332322   5864.915549 -22394.367725   -780.362813
PC24 -13741.063037 -24083.112131   3008.182940    895.813961
PC25 -20964.187501 -11913.183605 -14044.805192    329.137496
PC26    297.383550 -21535.186895  17705.113403   -250.947430
PC27  -7848.588470  15697.339842  21680.947508    272.921262
PC28 -23323.095829   9777.028342  11808.108326    207.679693
PC29  26735.971823   2556.270061   7562.175695    243.432841
PC30  12599.072896  13471.659043  20926.238930    -26.732615
PC32  -8920.476857  26019.654377  -4642.564267   -569.494674
PC33 -16214.606269  -1636.464532  22657.922661   -949.758557
PC34 -14238.735884 -12903.592234 -20256.491887    372.004134
PC35  22975.545454 -10639.646571 -11699.778190    430.767691
PC36  20675.350193  12850.714913  13666.833603    -10.612099
PC37  -1146.311086  21324.637096 -17975.418136   -937.159621
PC38  -6826.489889  32203.197055  26472.480059    137.575271
PC39 -17917.858574  19683.788364 -32692.535929     -7.196309
PC40 -23933.960317  33221.119797   9425.325755    -57.046312
PC41 -18018.585672  16715.467258  13260.898902   -892.597351
PC42  -4769.670856 -19893.540797  19040.463475   -453.333942
PC43 -26433.968088  -3248.088533  -8387.474865     60.905719
PC44   7363.300553 -16125.115166 -21557.828584    388.200348
PC45  15392.682522  -5942.305952  22497.088223    -70.884282
PC46  14261.749251  23915.246225  -2170.435784   -124.848827
PE02  14597.306912 -14480.907404  21273.371136    104.407671
PE03  25418.405028 -15178.714587     64.330756    -94.648222
PE04 -11574.164735  20994.751103 -17353.337055   -330.163591
PE05  24221.164851   -591.469760 -16999.101240   4721.207669
PE07  -8449.164214 -14703.489747  24267.799525   -104.424515
PE08  12292.425375 -20934.346905  16944.294923   -225.814367
PE09   8275.196322  14634.431131 -24358.335966   -340.500889
PE10   9107.083110  19805.323756  20022.362789   -602.894586
PE11  18718.980566  19476.942355  12072.377632   3239.287555
PE12   -942.837845  17274.871271  24015.548243   -911.687426
PE13 -18249.078946 -19559.766467 -12678.921729    -20.226620
PE14  -7443.506621 -18031.718539 -22959.272381     42.900088
PE15   1442.682834 -16989.893216 -24187.128575    -86.502194
PE18  21383.450198   4804.383281  16724.863262    340.727017
PE19 -26147.985695  13720.016376   2093.684236   -591.378151
PE21 -16373.982880  -7108.891149 -23620.268911   -579.652878
PE24   8372.731642  25796.931572  11864.299506   -605.056075
PE25  16302.881482   7580.603017  23511.731171      1.049005
PE26 -26992.797023 -10193.829075   6633.243149    372.349089
PE27  -8683.145047 -25504.555152 -12251.194282   -277.807496
PE30   4275.681841 -28570.770174   6391.915031     -9.752123
PE31  -4042.540714  28661.337032  -6216.102175    -16.287145
PE33 -20398.221191   4067.907121  21068.695244      7.780075
PE34  19994.575543  -4537.309599 -21348.528028    -95.323830
PE36  26935.922221  10665.102086  -6027.100090   -187.652495
PG01 -23524.367032 -12665.453317    904.681934    170.052247
PG02 -21345.301351 -14333.587522  -6674.507218   -483.543032
PG03 -11763.454875 -16608.180850  16989.127805    200.939407
PG04 -16105.296923  -6821.996775  20041.210897    294.709800
PG05   6675.173187  24741.685881  -6965.797813   -162.269926
PG06  -9869.663409  11107.548699  22091.685703    402.256925
PG07 -23776.699837  -3720.697948 -11252.579248    -64.855692
PG08  -8670.352818 -12716.536889 -21741.499248   -167.628119
PG09 -23208.195135   5167.097610  11816.523521     96.264759
PG10  10870.057091 -16885.879662 -17005.656572      0.926130
PG11   2370.279653  17482.418236  19893.573900   -579.909824
PG12  10664.692484  17779.742141  16352.338256   -479.179697
PG13  -2014.428207  16460.849868 -20898.220175    626.654859
PG14 -13468.686679  13040.562382 -18719.089956    328.950333
PG15  10137.356519  12393.097656 -21681.165816    128.972673
PG16    137.037907 -26254.892534  -2016.690581   -359.969609
PG17 -23088.385788  13273.229499   1203.241071    716.591238
PG18  23003.572061   2725.217676 -13144.138834   -558.241724
PG19 -18523.604689  16091.680667   9504.336835    442.372841
PG20    344.225963  25769.199616   6831.376404    387.041889
PG21 -18165.434730 -16259.069230 -11168.390500    134.488205
PG22 -10460.095049  20457.293731 -13145.383295     29.228459
PG23  14543.485456  -3824.172046 -21856.013655    158.799907
PG24  19553.690139  15878.918573  -9464.516352   -433.705064
PG25  15029.785242   6509.819786  20618.073632    488.951156
PG26   4712.950093 -24015.399881   9699.797540    188.910649
PG27   4557.453364 -18267.334663 -18833.975667     -5.094539
PG28  12477.672670 -10221.380383  21079.196701   -135.197420
PG29  23048.045489  -1839.592837  13111.391563   -606.730000
PG30 -17922.613116   5914.163304 -18659.875261   -430.978212
PG31   3192.115439 -15409.190132  21134.125159   -227.806329
PG32  20704.557870 -16079.321998   3699.238256   -612.265072
PJ02 -22882.218303  29498.002490 -14945.905815     -2.096656
PJ03      0.000000      0.000000      0.000000 999999.999999
PJ04 -30033.751720  29548.985599   9592.980548     50.885948
PR01 -16701.905292  17628.849961   7793.602880     77.490245
PR02 -10251.430043  21255.593453  -9720.476614    -22.493103
PR03   2831.033169  13265.945738 -21564.599367     94.743277
PR04  13758.982936  -1877.884773 -21359.589602    223.961598
PR05  17492.876195 -15857.472176  -9607.428269    127.093176
PR07  -3600.050227 -12515.612090  21968.088258     76.089455
PR08 -13984.229111   2134.845989  21298.612266    -74.466548
PR09  -2616.508102 -21341.834812  13800.916571    170.673716
PR11 -14491.798782 -12278.597877 -17029.317991     33.933353
PR12  -8658.585795   7440.171991 -22794.832696     36.876989
PR13    897.845834  20051.988874 -15765.600870    -44.475868
PR14  11737.277886  22468.430887   2766.519247     26.076426
PR15  14386.736252  10964.820986  17994.706891     82.090710
PR16   8634.149980  -7153.364887  22915.415515     23.375349
PR17  14995.380028  10032.157869  18057.996288     62.256183
PR18  24728.220582   4856.093503   3770.812401    128.009726
PR19  22897.058399  -1416.645956 -11146.411233   -266.264108
PR20   5076.457259  -9589.646035 -23070.149004   -108.465212
PR21 -15114.416754 -10035.407613 -17918.683409    -77.947802
PR22 -24866.222593  -5102.556108  -2579.728358    108.703530
PR24  -4140.819919  10383.377286  22946.303827    -44.413646
PR26 -13478.035363   1288.737699  21636.914743   -197.769985
EOF
